GLOBALSTAR M045 [-]     
1 25676U 99019A   24081.62569149 -.00000062  00000+0  28023-3 0  9997
2 25676  51.9958 155.1342 0000921  94.4709  71.3369 12.27032930137831
GLOBALSTAR M019 [-]     
1 25677U 99019B   24081.62799027  .00000049  00000+0  14500-2 0  9996
2 25677  51.9858 253.6547 0001869 112.8640 324.4985 12.13853124130181
GLOBALSTAR M044 [-]     
1 25678U 99019C   24081.44005735 -.00000079  00000+0  60978-4 0  9999
2 25678  51.9954 148.8974 0006111 242.8867 130.4426 11.90229730117418
GLOBALSTAR M042 [-]     
1 25679U 99019D   24081.42602183 -.00000042  00000+0  47314-3 0  9996
2 25679  51.9995 249.0825 0003889  89.1256 286.4303 12.22057931129907
GLOBALSTAR M025 [-]     
1 25770U 99031A   24081.53676469 -.00000053  00000+0  44024-3 0  9999
2 25770  51.9794 127.8625 0001715 120.5553  50.2573 11.22549656430879
GLOBALSTAR M049 [-]     
1 25771U 99031B   24081.43287818 -.00000029  00000+0  12426-2 0  9998
2 25771  51.9849 140.1135 0002533 336.1389  23.9290 11.12102256 67055
GLOBALSTAR M047 [-]     
1 25772U 99031C   24081.57109484 -.00000075  00000+0 -15558-3 0  9998
2 25772  51.9822 180.0104 0016626 203.3505 156.6547 11.31919263419852
GLOBALSTAR M052 [-]     
1 25773U 99031D   24081.41996524 -.00000088  00000+0 -74618-3 0  9997
2 25773  51.9844 255.1849 0003384 132.0460 238.4720 11.15049734428000
